{
  "type": "FeatureCollection",
  "features": [
    {
      "type": "Feature",
      "properties": {
        "norad_id": 32362,
        "name": "FENGYUN 1C DEB",
        "group": "fengyun-1c-debris",
        "lat": 62.60691299442746,
        "lon": -53.575061903407,
        "alt_km": 1199.0758908892203,
        "timestamp": "2025-12-20T16:47:36.572893+00:00",
        "meta_object_name": "FENGYUN 1C DEB",
        "meta_object_id": "1999-025CZF",
        "meta_epoch": "2025-12-19T21:07:20.730720",
        "meta_mean_motion": 13.65225462,
        "meta_eccentricity": 0.0273699,
        "meta_inclination": 99.8444,
        "meta_ra_of_asc_node": 325.1697,
        "meta_arg_of_pericenter": 267.2396,
        "meta_mean_anomaly": 89.7395,
        "meta_ephemeris_type": 0,
        "meta_classification_type": "U",
        "meta_norad_cat_id": 32362,
        "meta_element_set_no": 999,
        "meta_rev_at_epoch": 91227,
        "meta_bstar": 0.001706,
        "meta_mean_motion_dot": 1.741e-05,
        "meta_mean_motion_ddot": 0,
        "tle_line1": "1 32362U 99025CZF 25353.88010105  .00001741  00000+0  17060-2 0  9990",
        "tle_line2": "2 32362  99.8444 325.1697 0273699 267.2396  89.7395 13.65225462912278"
      },
      "geometry": {
        "type": "Point",
        "coordinates": [
          -53.575061903407,
          62.60691299442746
        ]
      }
    },
    {
      "type": "Feature",
      "properties": {
        "norad_id": 32363,
        "name": "FENGYUN 1C DEB",
        "group": "fengyun-1c-debris",
        "lat": -0.5679172247389326,
        "lon": -46.03023964569242,
        "alt_km": 439.71264651245565,
        "timestamp": "2025-12-20T16:47:36.572904+00:00",
        "meta_object_name": "FENGYUN 1C DEB",
        "meta_object_id": "1999-025CZG",
        "meta_epoch": "2025-12-17T08:09:57.409920",
        "meta_mean_motion": 15.48534366,
        "meta_eccentricity": 0.00638192,
        "meta_inclination": 98.3303,
        "meta_ra_of_asc_node": 310.0138,
        "meta_arg_of_pericenter": 125.2276,
        "meta_mean_anomaly": 235.4969,
        "meta_ephemeris_type": 0,
        "meta_classification_type": "U",
        "meta_norad_cat_id": 32363,
        "meta_element_set_no": 999,
        "meta_rev_at_epoch": 96879,
        "meta_bstar": 0.0013930297,
        "meta_mean_motion_dot": 0.00081044,
        "meta_mean_motion_ddot": 0,
        "tle_line1": "1 32363U 99025CZG 25351.34024780  .00081044  00000+0  13930-2 0  9990",
        "tle_line2": "2 32363  98.3303 310.0138 0063819 125.2276 235.4969 15.48534366968795"
      },
      "geometry": {
        "type": "Point",
        "coordinates": [
          -46.03023964569242,
          -0.5679172247389326
        ]
      }
    },
    {
      "type": "Feature",
      "properties": {
        "norad_id": 32364,
        "name": "FENGYUN 1C DEB",
        "group": "fengyun-1c-debris",
        "lat": -7.164564410630874,
        "lon": -165.8686936903594,
        "alt_km": 942.9764959413806,
        "timestamp": "2025-12-20T16:47:36.572933+00:00",
        "meta_object_name": "FENGYUN 1C DEB",
        "meta_object_id": "1999-025CZH",
        "meta_epoch": "2025-11-29T08:05:37.624992",
        "meta_mean_motion": 14.14317962,
        "meta_eccentricity": 0.01349396,
        "meta_inclination": 98.2918,
        "meta_ra_of_asc_node": 173.2369,
        "meta_arg_of_pericenter": 222.8285,
        "meta_mean_anomaly": 136.2316,
        "meta_ephemeris_type": 0,
        "meta_classification_type": "U",
        "meta_norad_cat_id": 32364,
        "meta_element_set_no": 999,
        "meta_rev_at_epoch": 63519,
        "meta_bstar": 0.0022712328,
        "meta_mean_motion_dot": 4.699e-05,
        "meta_mean_motion_ddot": 0,
        "tle_line1": "1 32364U 99025CZH 25333.33724103  .00004699  00000+0  22712-2 0  9995",
        "tle_line2": "2 32364  98.2918 173.2369 0134939 222.8285 136.2316 14.14317962635190"
      },
      "geometry": {
        "type": "Point",
        "coordinates": [
          -165.8686936903594,
          -7.164564410630874
        ]
      }
    },
    {
      "type": "Feature",
      "properties": {
        "norad_id": 32366,
        "name": "FENGYUN 1C DEB",
        "group": "fengyun-1c-debris",
        "lat": 30.85820862865262,
        "lon": 111.08223049880681,
        "alt_km": 927.2906467940757,
        "timestamp": "2025-12-20T16:47:36.572945+00:00",
        "meta_object_name": "FENGYUN 1C DEB",
        "meta_object_id": "1999-025CZK",
        "meta_epoch": "2025-12-17T13:54:40.935744",
        "meta_mean_motion": 14.13865958,
        "meta_eccentricity": 0.0135504,
        "meta_inclination": 96.7755,
        "meta_ra_of_asc_node": 112.7867,
        "meta_arg_of_pericenter": 252.3164,
        "meta_mean_anomaly": 106.3182,
        "meta_ephemeris_type": 0,
        "meta_classification_type": "U",
        "meta_norad_cat_id": 32366,
        "meta_element_set_no": 999,
        "meta_rev_at_epoch": 93272,
        "meta_bstar": 0.0013067056,
        "meta_mean_motion_dot": 2.675e-05,
        "meta_mean_motion_ddot": 0,
        "tle_line1": "1 32366U 99025CZK 25351.57964046  .00002675  00000+0  13067-2 0  9990",
        "tle_line2": "2 32366  96.7755 112.7867 0135504 252.3164 106.3182 14.13865958932728"
      },
      "geometry": {
        "type": "Point",
        "coordinates": [
          111.08223049880681,
          30.85820862865262
        ]
      }
    },
    {
      "type": "Feature",
      "properties": {
        "norad_id": 32372,
        "name": "FENGYUN 1C DEB",
        "group": "fengyun-1c-debris",
        "lat": 56.83327014908031,
        "lon": -137.75846988130326,
        "alt_km": 844.3655596016342,
        "timestamp": "2025-12-20T16:47:36.572955+00:00",
        "meta_object_name": "FENGYUN 1C DEB",
        "meta_object_id": "1999-025CZR",
        "meta_epoch": "2025-12-11T11:21:44.110080",
        "meta_mean_motion": 13.35367723,
        "meta_eccentricity": 0.04586798,
        "meta_inclination": 97.3163,
        "meta_ra_of_asc_node": 226.9338,
        "meta_arg_of_pericenter": 43.4714,
        "meta_mean_anomaly": 320.164,
        "meta_ephemeris_type": 0,
        "meta_classification_type": "U",
        "meta_norad_cat_id": 32372,
        "meta_element_set_no": 999,
        "meta_rev_at_epoch": 60123,
        "meta_bstar": 0.003543376,
        "meta_mean_motion_dot": 3.249e-05,
        "meta_mean_motion_ddot": 0,
        "tle_line1": "1 32372U 99025CZR 25345.47342720  .00003249  00000+0  35434-2 0  9998",
        "tle_line2": "2 32372  97.3163 226.9338 0458679  43.4714 320.1640 13.35367723601231"
      },
      "geometry": {
        "type": "Point",
        "coordinates": [
          -137.75846988130326,
          56.83327014908031
        ]
      }
    },
    {
      "type": "Feature",
      "properties": {
        "norad_id": 32409,
        "name": "FENGYUN 1C DEB",
        "group": "fengyun-1c-debris",
        "lat": 9.968457850089798,
        "lon": -18.298579464595626,
        "alt_km": 620.9338964217823,
        "timestamp": "2025-12-20T16:47:36.572966+00:00",
        "meta_object_name": "FENGYUN 1C DEB",
        "meta_object_id": "1999-025CZV",
        "meta_epoch": "2025-12-07T05:07:54.004800",
        "meta_mean_motion": 14.7602828,
        "meta_eccentricity": 0.00392582,
        "meta_inclination": 99.5677,
        "meta_ra_of_asc_node": 144.053,
        "meta_arg_of_pericenter": 169.8692,
        "meta_mean_anomaly": 6.8268,
        "meta_ephemeris_type": 0,
        "meta_classification_type": "U",
        "meta_norad_cat_id": 32409,
        "meta_element_set_no": 999,
        "meta_rev_at_epoch": 58757,
        "meta_bstar": 0.00306852,
        "meta_mean_motion_dot": 0.00021404,
        "meta_mean_motion_ddot": 0,
        "tle_line1": "1 32409U 99025CZV 25341.21381950  .00021404  00000+0  30685-2 0  9991",
        "tle_line2": "2 32409  99.5677 144.0530 0039258 169.8692   6.8268 14.76028280587578"
      },
      "geometry": {
        "type": "Point",
        "coordinates": [
          -18.298579464595626,
          9.968457850089798
        ]
      }
    },
    {
      "type": "Feature",
      "properties": {
        "norad_id": 32411,
        "name": "FENGYUN 1C DEB",
        "group": "fengyun-1c-debris",
        "lat": 21.62331478011268,
        "lon": -91.20980768298,
        "alt_km": 780.4044670307067,
        "timestamp": "2025-12-20T16:47:36.572976+00:00",
        "meta_object_name": "FENGYUN 1C DEB",
        "meta_object_id": "1999-025CZX",
        "meta_epoch": "2025-12-20T11:34:57.567072",
        "meta_mean_motion": 14.09824022,
        "meta_eccentricity": 0.0123854,
        "meta_inclination": 98.4301,
        "meta_ra_of_asc_node": 271.9568,
        "meta_arg_of_pericenter": 354.4553,
        "meta_mean_anomaly": 5.524,
        "meta_ephemeris_type": 0,
        "meta_classification_type": "U",
        "meta_norad_cat_id": 32411,
        "meta_element_set_no": 999,
        "meta_rev_at_epoch": 65923,
        "meta_bstar": 0.0004264,
        "meta_mean_motion_dot": 7.64e-06,
        "meta_mean_motion_ddot": 0,
        "tle_line1": "1 32411U 99025CZX 25354.48261073  .00000764  00000+0  42640-3 0  9991",
        "tle_line2": "2 32411  98.4301 271.9568 0123854 354.4553   5.5240 14.09824022659231"
      },
      "geometry": {
        "type": "Point",
        "coordinates": [
          -91.20980768298,
          21.62331478011268
        ]
      }
    }
  ]
}